NOAA 15                 
1 25338U 98030A   22282.49712861  .00000239  00000+0  11808-3 0  9999
2 25338  98.6363 310.5001 0009715 330.4089  29.6540 14.26179884269279
NOAA 18                 
1 28654U 05018A   22282.44307795  .00000254  00000+0  16085-3 0  9997
2 28654  98.9394 352.7365 0014301  13.5787 346.5767 14.12787110896160
NOAA 19                 
1 33591U 09005A   22282.52813490  .00000252  00000+0  16094-3 0  9994
2 33591  99.1380 319.0097 0013265 224.8526 135.1574 14.12619536704294
METOP-B                 
1 38771U 12049A   22282.52928199  .00000186  00000+0  10531-3 0  9990
2 38771  98.7172 340.6158 0001705  81.8124  53.4640 14.21480348521944
SARAL                   
1 39086U 13009A   22282.48750819  .00000181  00000+0  83614-4 0  9992
2 39086  98.5486 106.4508 0000546  25.1245 334.9965 14.32034261502806
METOP-C                 
1 43689U 18087A   22282.46898074  .00000184  00000+0  10397-3 0  9991
2 43689  98.7218 340.5654 0004197  75.0658 285.0984 14.21474120203508
ANGELS                  
1 44876U 19092D   22282.49153937  .00005534  00000+0  27141-3 0  9991
2 44876  97.4759 104.5106 0011106 327.8114  32.2441 15.18471095155541
